{
  "type": "FeatureCollection",
  "features": [
    {
      "type": "Feature",
      "properties": {
        "norad_id": 41581,
        "name": "INTELSAT 31 (IS-31)",
        "group": "intelsat",
        "lat": 0.00018701826270242433,
        "lon": -62.5460383935083,
        "alt_km": 35785.416166141935,
        "timestamp": "2025-12-13T20:38:50.663129+00:00",
        "meta_object_name": "INTELSAT 31 (IS-31)",
        "meta_object_id": "2016-035A",
        "meta_epoch": "2025-12-12T21:35:22.164576",
        "meta_mean_motion": 1.00271383,
        "meta_eccentricity": 0.00020554,
        "meta_inclination": 0.0183,
        "meta_ra_of_asc_node": 268.2699,
        "meta_arg_of_pericenter": 304.2994,
        "meta_mean_anomaly": 98.0553,
        "meta_ephemeris_type": 0,
        "meta_classification_type": "U",
        "meta_norad_cat_id": 41581,
        "meta_element_set_no": 999,
        "meta_rev_at_epoch": 3481,
        "meta_bstar": 0,
        "meta_mean_motion_dot": -1.38e-06,
        "meta_mean_motion_ddot": 0,
        "tle_line1": "1 41581U 16035A   25346.89956209 -.00000138  00000+0  00000+0 0  9993",
        "tle_line2": "2 41581   0.0183 268.2699 0002055 304.2994  98.0553  1.00271383 34819"
      },
      "geometry": {
        "type": "Point",
        "coordinates": [
          -62.5460383935083,
          0.00018701826270242433
        ]
      }
    },
    {
      "type": "Feature",
      "properties": {
        "norad_id": 41747,
        "name": "INTELSAT 36 (IS-36)",
        "group": "intelsat",
        "lat": 0.02852002925524755,
        "lon": 100.98392279134902,
        "alt_km": 35790.71020930232,
        "timestamp": "2025-12-13T20:38:50.663140+00:00",
        "meta_object_name": "INTELSAT 36 (IS-36)",
        "meta_object_id": "2016-053A",
        "meta_epoch": "2025-12-12T20:39:14.930208",
        "meta_mean_motion": 1.00270684,
        "meta_eccentricity": 0.00015547,
        "meta_inclination": 0.0128,
        "meta_ra_of_asc_node": 7.6743,
        "meta_arg_of_pericenter": 321.5559,
        "meta_mean_anomaly": 130.8681,
        "meta_ephemeris_type": 0,
        "meta_classification_type": "U",
        "meta_norad_cat_id": 41747,
        "meta_element_set_no": 999,
        "meta_rev_at_epoch": 3408,
        "meta_bstar": 0,
        "meta_mean_motion_dot": -1.2e-07,
        "meta_mean_motion_ddot": 0,
        "tle_line1": "1 41747U 16053A   25346.86058947 -.00000012  00000+0  00000+0 0  9997",
        "tle_line2": "2 41747   0.0128   7.6743 0001554 321.5559 130.8681  1.00270684 34088"
      },
      "geometry": {
        "type": "Point",
        "coordinates": [
          100.98392279134902,
          0.02852002925524755
        ]
      }
    },
    {
      "type": "Feature",
      "properties": {
        "norad_id": 41945,
        "name": "INTELSAT 32E (IS-32E)",
        "group": "intelsat",
        "lat": -0.026577651990822605,
        "lon": -10.687654561536972,
        "alt_km": 35784.07219486396,
        "timestamp": "2025-12-13T20:38:50.663151+00:00",
        "meta_object_name": "INTELSAT 32E (IS-32E)",
        "meta_object_id": "2017-007B",
        "meta_epoch": "2025-12-12T11:33:44.679168",
        "meta_mean_motion": 1.00273861,
        "meta_eccentricity": 3.861e-05,
        "meta_inclination": 0.0354,
        "meta_ra_of_asc_node": 82.6036,
        "meta_arg_of_pericenter": 280.6351,
        "meta_mean_anomaly": 208.4399,
        "meta_ephemeris_type": 0,
        "meta_classification_type": "U",
        "meta_norad_cat_id": 41945,
        "meta_element_set_no": 999,
        "meta_rev_at_epoch": 3235,
        "meta_bstar": 0,
        "meta_mean_motion_dot": -2.58e-06,
        "meta_mean_motion_ddot": 0,
        "tle_line1": "1 41945U 17007B   25346.48176712 -.00000258  00000+0  00000+0 0  9998",
        "tle_line2": "2 41945   0.0354  82.6036 0000386 280.6351 208.4399  1.00273861 32350"
      },
      "geometry": {
        "type": "Point",
        "coordinates": [
          -10.687654561536972,
          -0.026577651990822605
        ]
      }
    },
    {
      "type": "Feature",
      "properties": {
        "norad_id": 42818,
        "name": "INTELSAT 35E (IS-35E)",
        "group": "intelsat",
        "lat": 0.0006813970285990626,
        "lon": -1.9807912473826084,
        "alt_km": 35786.623271577555,
        "timestamp": "2025-12-13T20:38:50.663163+00:00",
        "meta_object_name": "INTELSAT 35E (IS-35E)",
        "meta_object_id": "2017-041A",
        "meta_epoch": "2025-12-13T04:43:29.419392",
        "meta_mean_motion": 1.00273267,
        "meta_eccentricity": 0.00020568,
        "meta_inclination": 0.0184,
        "meta_ra_of_asc_node": 10.705,
        "meta_arg_of_pericenter": 251.4112,
        "meta_mean_anomaly": 216.392,
        "meta_ephemeris_type": 0,
        "meta_classification_type": "U",
        "meta_norad_cat_id": 42818,
        "meta_element_set_no": 999,
        "meta_rev_at_epoch": 3095,
        "meta_bstar": 0,
        "meta_mean_motion_dot": -2.24e-06,
        "meta_mean_motion_ddot": 0,
        "tle_line1": "1 42818U 17041A   25347.19686828 -.00000224  00000+0  00000+0 0  9992",
        "tle_line2": "2 42818   0.0184  10.7050 0002056 251.4112 216.3920  1.00273267 30958"
      },
      "geometry": {
        "type": "Point",
        "coordinates": [
          -1.9807912473826084,
          0.0006813970285990626
        ]
      }
    },
    {
      "type": "Feature",
      "properties": {
        "norad_id": 42950,
        "name": "INTELSAT 37E (IS-37E)",
        "group": "intelsat",
        "lat": -0.000907077350362102,
        "lon": 14.526408801413472,
        "alt_km": 35791.86935877245,
        "timestamp": "2025-12-13T20:38:50.663174+00:00",
        "meta_object_name": "INTELSAT 37E (IS-37E)",
        "meta_object_id": "2017-059A",
        "meta_epoch": "2025-12-13T04:48:13.964832",
        "meta_mean_motion": 1.00272186,
        "meta_eccentricity": 0.00030398,
        "meta_inclination": 0.0027,
        "meta_ra_of_asc_node": 78.8787,
        "meta_arg_of_pericenter": 178.4467,
        "meta_mean_anomaly": 238.8737,
        "meta_ephemeris_type": 0,
        "meta_classification_type": "U",
        "meta_norad_cat_id": 42950,
        "meta_element_set_no": 999,
        "meta_rev_at_epoch": 3020,
        "meta_bstar": 0,
        "meta_mean_motion_dot": -1.27e-06,
        "meta_mean_motion_ddot": 0,
        "tle_line1": "1 42950U 17059A   25347.20016163 -.00000127  00000+0  00000+0 0  9991",
        "tle_line2": "2 42950   0.0027  78.8787 0003039 178.4467 238.8737  1.00272186 30208"
      },
      "geometry": {
        "type": "Point",
        "coordinates": [
          14.526408801413472,
          -0.000907077350362102
        ]
      }
    },
    {
      "type": "Feature",
      "properties": {
        "norad_id": 43632,
        "name": "AZERSPACE 2 (IS-38)",
        "group": "intelsat",
        "lat": 0.03748948964693658,
        "lon": 77.60419350064656,
        "alt_km": 35791.655109915475,
        "timestamp": "2025-12-13T20:38:50.663186+00:00",
        "meta_object_name": "AZERSPACE 2 (IS-38)",
        "meta_object_id": "2018-074A",
        "meta_epoch": "2025-12-13T05:06:12.243744",
        "meta_mean_motion": 1.00271556,
        "meta_eccentricity": 0.000134,
        "meta_inclination": 0.0184,
        "meta_ra_of_asc_node": 341.0479,
        "meta_arg_of_pericenter": 286.2367,
        "meta_mean_anomaly": 296.5271,
        "meta_ephemeris_type": 0,
        "meta_classification_type": "U",
        "meta_norad_cat_id": 43632,
        "meta_element_set_no": 999,
        "meta_rev_at_epoch": 2658,
        "meta_bstar": 0,
        "meta_mean_motion_dot": 1.5e-06,
        "meta_mean_motion_ddot": 0,
        "tle_line1": "1 43632U 18074A   25347.21264171  .00000150  00000+0  00000+0 0  9997",
        "tle_line2": "2 43632   0.0184 341.0479 0001340 286.2367 296.5271  1.00271556 26583"
      },
      "geometry": {
        "type": "Point",
        "coordinates": [
          77.60419350064656,
          0.03748948964693658
        ]
      }
    },
    {
      "type": "Feature",
      "properties": {
        "norad_id": 43633,
        "name": "HORIZONS-3E",
        "group": "intelsat",
        "lat": -0.01299947229604316,
        "lon": -158.54389802399112,
        "alt_km": 35787.11834415635,
        "timestamp": "2025-12-13T20:38:50.663198+00:00",
        "meta_object_name": "HORIZONS-3E",
        "meta_object_id": "2018-074B",
        "meta_epoch": "2025-12-12T13:12:38.637216",
        "meta_mean_motion": 1.0026807,
        "meta_eccentricity": 0.00011684,
        "meta_inclination": 0.0433,
        "meta_ra_of_asc_node": 179.7044,
        "meta_arg_of_pericenter": 112.3484,
        "meta_mean_anomaly": 156.6007,
        "meta_ephemeris_type": 0,
        "meta_classification_type": "U",
        "meta_norad_cat_id": 43633,
        "meta_element_set_no": 999,
        "meta_rev_at_epoch": 2646,
        "meta_bstar": 0,
        "meta_mean_motion_dot": -2e-07,
        "meta_mean_motion_ddot": 0,
        "tle_line1": "1 43633U 18074B   25346.55044719 -.00000020  00000+0  00000+0 0  9995",
        "tle_line2": "2 43633   0.0433 179.7044 0001168 112.3484 156.6007  1.00268070 26469"
      },
      "geometry": {
        "type": "Point",
        "coordinates": [
          -158.54389802399112,
          -0.01299947229604316
        ]
      }
    }
  ]
}